{{Infobox planet
|width           = 25em
|background      = #FFFFC0 | name=小行星329
 | discoverer=[[马克斯·沃夫|马克斯·沃夫]]
 | discovered=1892年3月21日
 | alt_names=
 | named_after = [[瑞典|瑞典]]
 | mp_category=[[小行星带|主带小行星]]
 | epoch=2011年8月27日 ([[儒略日|JD]] 2453400.5)
 | semimajor=2.477115072587703AU
 | perihelion=2.416762852816952AU
 | aphelion=2.537467292358454[[天文单位|AU]]
 | eccentricity=0.02436391447398712
 | period=1424.025281724416[[day|d]]<br/>(3.9 [[儒略年|a]])
 | inclination=15.88217961224744[[角度|°]]
 | asc_node=178.5132935572637°
 | arg_peri=56.72636469459466°
 | mean_anomaly=186.5306107835478°
 | avg_speed=18.92 km/[[second|s]]
 | dimensions=77.80 km
 | mass=未知
 | density=未知
 | surface_grav=未知
 | escape_velocity=未知
 | rotation=15.201小时
 | spectral_type=[[C-型小行星|C]]
 | abs_magnitude=9.66
 | albedo=0.0399
 | single_temperature=未知}}

'''小行星329'''（[[英语|英语]]：'''329 Svea'''）是一颗大型[[C-型小行星|C型]][[小行星带|主带小行星]]，于1892年3月21日由[[德国|德国]][[天文学家|天文学家]][[马克斯·沃夫|马克斯·沃夫]]在[[海德堡|海德堡]]发现<ref>[http://ssd.jpl.nasa.gov/sbdb.cgi?sstr=332;orb=1 JPL Small-Body Database Browser]</ref>。

==参考资料==
{{reflist}}

{{Minor Planet Number|[[小行星328|328 Gudrun]]|[[小行星330|330 Adalberta]]}}

{{Beltasteroid-stub}}

[[Category:1892年发现的小行星|Category:1892年发现的小行星]]
[[Category:小行星带天体|Category:小行星带天体]]
[[Category:以地名命名的小行星|Category:以地名命名的小行星]]